{
  "norad_id": 49138,
  "name": "STARLINK-3058",
  "history": [
    {
      "epoch": "2026-03-28T19:22:30.457344",
      "apogee_km": 573.5212761452194,
      "perigee_km": 570.4905968163366,
      "latitude_deg": 65.06126754543851,
      "longitude_deg": -108.69949183985591,
      "semi_major_axis_km": 6950.142936480777,
      "eccentricity": 0.00021803,
      "inclination_deg": 70.0006,
      "raan_deg": 246.2569,
      "arg_perigee_deg": 258.1945,
      "mean_anomaly_deg": 101.897,
      "mean_motion_rev_day": 14.98346154
    }
  ]
}