{"fetched_at":"2026-03-29T16:36:15Z","count":15609,"tles":[{"name":"STARLINK-3058","line1":"1 49138U 21082J   26087.80729696  .00001692  00000+0  14952-3 0  9999","line2":"2 49138  70.0006 246.2569 0002180 258.1945 101.8970 14.98346154248846","category":"Starlink"}]}